{
    "links": {
        "self": "http://www.neowsapp.com/rest/v1/neo/3696194?api_key=iIulBulltgU6a56xZRHN4H3l9WmuAYTsLGpBGhQ2"
    },
    "id": "3696194",
    "neo_reference_id": "3696194",
    "name": "(2014 WO4)",
    "designation": "2014 WO4",
    "nasa_jpl_url": "http://ssd.jpl.nasa.gov/sbdb.cgi?sstr=3696194",
    "absolute_magnitude_h": 24.4,
    "estimated_diameter": {
        "kilometers": {
            "estimated_diameter_min": 0.0350392641,
            "estimated_diameter_max": 0.0783501764
        },
        "meters": {
            "estimated_diameter_min": 35.0392641108,
            "estimated_diameter_max": 78.3501764334
        },
        "miles": {
            "estimated_diameter_min": 0.0217723826,
            "estimated_diameter_max": 0.0486845275
        },
        "feet": {
            "estimated_diameter_min": 114.9582192654,
            "estimated_diameter_max": 257.0543928497
        }
    },
    "is_potentially_hazardous_asteroid": false,
    "close_approach_data": [
        {
            "close_approach_date": "2014-11-20",
            "close_approach_date_full": "2014-Nov-20 21:36",
            "epoch_date_close_approach": 1416519360000,
            "relative_velocity": {
                "kilometers_per_second": "19.9910307969",
                "kilometers_per_hour": "71967.7108689577",
                "miles_per_hour": "44717.9367896588"
            },
            "miss_distance": {
                "astronomical": "0.0101494872",
                "lunar": "3.9481505208",
                "kilometers": "1518341.666712264",
                "miles": "943453.7631626832"
            },
            "orbiting_body": "Earth"
        }
    ],
    "orbital_data": {
        "orbit_id": "6",
        "orbit_determination_date": "2017-04-06 08:37:31",
        "first_observation_date": "2014-11-16",
        "last_observation_date": "2014-11-19",
        "data_arc_in_days": 3,
        "observations_used": 76,
        "orbit_uncertainty": "8",
        "minimum_orbit_intersection": ".00445086",
        "jupiter_tisserand_invariant": "3.315",
        "epoch_osculation": "2456978.5",
        "eccentricity": ".7102386826631015",
        "semi_major_axis": "2.160626449399415",
        "inclination": "1.709934323578424",
        "ascending_node_longitude": "218.1015920029988",
        "orbital_period": "1160.026630097067",
        "perihelion_distance": ".6260659662509201",
        "perihelion_argument": "283.4141857674319",
        "aphelion_distance": "3.69518693254791",
        "perihelion_time": "2457027.288432852985",
        "mean_anomaly": "344.859109807156",
        "mean_motion": ".3103377031696907",
        "equinox": "J2000",
        "orbit_class": {
            "orbit_class_type": "APO",
            "orbit_class_description": "Near-Earth asteroid orbits which cross the Earth’s orbit similar to that of 1862 Apollo",
            "orbit_class_range": "a (semi-major axis) > 1.0 AU; q (perihelion) < 1.017 AU"
        }
    },
    "is_sentry_object": false
}